IRIDIUM 116             
1 43072U 17083C   23328.54938576  .00000472  00000+0  16157-3 0  9995
2 43072  86.3974 353.0567 0002147  88.6740 271.4702 14.34219413310066
IRIDIUM 130             
1 43073U 17083D   23328.58744167  .00000475  00000+0  16245-3 0  9992
2 43073  86.3983 353.2251 0002246  94.9271 265.2181 14.34218516310018
IRIDIUM 151             
1 43074U 17083E   23328.56207192  .00000496  00000+0  17017-3 0  9994
2 43074  86.3976 353.0879 0001993  89.0395 271.1029 14.34220915310030
IRIDIUM 134             
1 43075U 17083F   23328.60013207  .00000501  00000+0  17167-3 0  9995
2 43075  86.3977 353.0673 0002367  93.3979 266.7488 14.34218166310007
IRIDIUM 137             
1 43076U 17083G   23328.54304582  .00000491  00000+0  16818-3 0  9998
2 43076  86.3979 353.1655 0002246  82.9373 277.2078 14.34218582310069
IRIDIUM 141             
1 43077U 17083H   23328.60646795  .00000484  00000+0  16571-3 0  9999
2 43077  86.3974 353.0223 0002031  95.0467 265.0961 14.34220371310072
IRIDIUM 153             
1 43078U 17083J   23328.48888161  .00000321  00000+0  10753-3 0  9997
2 43078  86.3942 321.5257 0001957  98.0723 262.0695 14.34220541311160
IRIDIUM 131             
1 43079U 17083K   23328.59379339  .00000504  00000+0  17276-3 0  9992
2 43079  86.3979 353.1512 0002107  94.7968 265.3468 14.34222023310001
